{
  "type": "FeatureCollection",
  "features": [
    {
      "type": "Feature",
      "properties": {
        "norad_id": 64902,
        "name": "CO3D 2",
        "group": "resource",
        "lat": -48.270573136442145,
        "lon": -135.554148431179,
        "alt_km": 512.4207762118649,
        "timestamp": "2025-12-02T10:50:46.931336+00:00",
        "meta_object_name": "CO3D 2",
        "meta_object_id": "2025-156D",
        "meta_epoch": "2025-12-02T05:06:14.529024",
        "meta_mean_motion": 15.2019752,
        "meta_eccentricity": 9.59e-05,
        "meta_inclination": 97.4353,
        "meta_ra_of_asc_node": 52.6298,
        "meta_arg_of_pericenter": 113.4029,
        "meta_mean_anomaly": 246.7307,
        "meta_ephemeris_type": 0,
        "meta_classification_type": "U",
        "meta_norad_cat_id": 64902,
        "meta_element_set_no": 999,
        "meta_rev_at_epoch": 1960,
        "meta_bstar": 0.00034938,
        "meta_mean_motion_dot": 7.502e-05,
        "meta_mean_motion_ddot": 0,
        "tle_line1": "1 64902U 25156D   25336.21266816  .00007502  00000+0  34938-3 0  9994",
        "tle_line2": "2 64902  97.4353  52.6298 0000959 113.4029 246.7307 15.20197520 19606"
      },
      "geometry": {
        "type": "Point",
        "coordinates": [
          -135.554148431179,
          -48.270573136442145
        ]
      }
    },
    {
      "type": "Feature",
      "properties": {
        "norad_id": 64903,
        "name": "CO3D 1",
        "group": "resource",
        "lat": -47.4510400221591,
        "lon": -135.31401441869943,
        "alt_km": 512.3423158608266,
        "timestamp": "2025-12-02T10:50:46.931347+00:00",
        "meta_object_name": "CO3D 1",
        "meta_object_id": "2025-156E",
        "meta_epoch": "2025-12-02T05:06:27.858816",
        "meta_mean_motion": 15.20202993,
        "meta_eccentricity": 0.000104,
        "meta_inclination": 97.4354,
        "meta_ra_of_asc_node": 52.6299,
        "meta_arg_of_pericenter": 117.3293,
        "meta_mean_anomaly": 242.8048,
        "meta_ephemeris_type": 0,
        "meta_classification_type": "U",
        "meta_norad_cat_id": 64903,
        "meta_element_set_no": 999,
        "meta_rev_at_epoch": 1960,
        "meta_bstar": 0.00052018,
        "meta_mean_motion_dot": 0.0001121,
        "meta_mean_motion_ddot": 0,
        "tle_line1": "1 64903U 25156E   25336.21282244  .00011210  00000+0  52018-3 0  9998",
        "tle_line2": "2 64903  97.4354  52.6299 0001040 117.3293 242.8048 15.20202993 19607"
      },
      "geometry": {
        "type": "Point",
        "coordinates": [
          -135.31401441869943,
          -47.4510400221591
        ]
      }
    },
    {
      "type": "Feature",
      "properties": {
        "norad_id": 66514,
        "name": "SENTINEL-6B",
        "group": "resource",
        "lat": 61.877563265526035,
        "lon": -119.78108345001479,
        "alt_km": 1319.64125622544,
        "timestamp": "2025-12-02T10:50:46.931357+00:00",
        "meta_object_name": "SENTINEL-6B",
        "meta_object_id": "2025-264A",
        "meta_epoch": "2025-12-02T01:07:30.457056",
        "meta_mean_motion": 12.85877319,
        "meta_eccentricity": 0.0011528,
        "meta_inclination": 66.0388,
        "meta_ra_of_asc_node": 184.7629,
        "meta_arg_of_pericenter": 268.8495,
        "meta_mean_anomaly": 91.1202,
        "meta_ephemeris_type": 0,
        "meta_classification_type": "U",
        "meta_norad_cat_id": 66514,
        "meta_element_set_no": 999,
        "meta_rev_at_epoch": 191,
        "meta_bstar": 0.00032638,
        "meta_mean_motion_dot": 1.9e-07,
        "meta_mean_motion_ddot": 0,
        "tle_line1": "1 66514U 25264A   25336.04688029  .00000019  00000+0  32638-3 0  9991",
        "tle_line2": "2 66514  66.0388 184.7629 0011528 268.8495  91.1202 12.85877319  1918"
      },
      "geometry": {
        "type": "Point",
        "coordinates": [
          -119.78108345001479,
          61.877563265526035
        ]
      }
    }
  ]
}